CCSDS_OMM_VERS = 2.0
CREATION_DATE  = 
ORIGINATOR     = 

OBJECT_NAME    = ATLAS CENTAUR R/B
OBJECT_ID      = 1972-065B
CENTER_NAME    = EARTH
REF_FRAME      = TEME
TIME_SYSTEM    = UTC
MEAN_ELEMENT_THEORY = SGP/SGP4

EPOCH          = 2025-12-30T07:08:36.193632
MEAN_MOTION    = 14.77460914
ECCENTRICITY   = .00335076
INCLINATION    = 35.0026
RA_OF_ASC_NODE = 352.3454
ARG_OF_PERICENTER = 147.4856
MEAN_ANOMALY   = 212.7917

EPHEMERIS_TYPE = 0
CLASSIFICATION_TYPE = U
NORAD_CAT_ID   = 6155
ELEMENT_SET_NO = 999
REV_AT_EPOCH   = 83099
BSTAR          = .29116917E-3
MEAN_MOTION_DOT = .2105E-4
MEAN_MOTION_DDOT = 0

CCSDS_OMM_VERS = 2.0
CREATION_DATE  = 
ORIGINATOR     = 

OBJECT_NAME    = SL-8 R/B
OBJECT_ID      = 1975-112B
CENTER_NAME    = EARTH
REF_FRAME      = TEME
TIME_SYSTEM    = UTC
MEAN_ELEMENT_THEORY = SGP/SGP4

EPOCH          = 2025-12-30T13:39:06.124032
MEAN_MOTION    = 14.38158650
ECCENTRICITY   = .0016694
INCLINATION    = 74.0603
RA_OF_ASC_NODE = 146.0636
ARG_OF_PERICENTER = 255.6788
MEAN_ANOMALY   = 104.2513

EPHEMERIS_TYPE = 0
CLASSIFICATION_TYPE = U
NORAD_CAT_ID   = 8459
ELEMENT_SET_NO = 999
REV_AT_EPOCH   = 62193
BSTAR          = .17269541E-3
MEAN_MOTION_DOT = .499E-5
MEAN_MOTION_DDOT = 0

CCSDS_OMM_VERS = 2.0
CREATION_DATE  = 
ORIGINATOR     = 

OBJECT_NAME    = SL-3 R/B
OBJECT_ID      = 1977-057B
CENTER_NAME    = EARTH
REF_FRAME      = TEME
TIME_SYSTEM    = UTC
MEAN_ELEMENT_THEORY = SGP/SGP4

EPOCH          = 2025-12-30T14:07:00.740064
MEAN_MOTION    = 15.43414128
ECCENTRICITY   = .00076562
INCLINATION    = 97.5687
RA_OF_ASC_NODE = 168.6174
ARG_OF_PERICENTER = 164.0852
MEAN_ANOMALY   = 196.0638

EPHEMERIS_TYPE = 0
CLASSIFICATION_TYPE = U
NORAD_CAT_ID   = 10114
ELEMENT_SET_NO = 999
REV_AT_EPOCH   = 65766
BSTAR          = .40417974E-3
MEAN_MOTION_DOT = .18007E-3
MEAN_MOTION_DDOT = 0

CCSDS_OMM_VERS = 2.0
CREATION_DATE  = 
ORIGINATOR     = 

OBJECT_NAME    = SEASAT 1
OBJECT_ID      = 1978-064A
CENTER_NAME    = EARTH
REF_FRAME      = TEME
TIME_SYSTEM    = UTC
MEAN_ELEMENT_THEORY = SGP/SGP4

EPOCH          = 2025-12-30T14:22:32.945088
MEAN_MOTION    = 14.46083475
ECCENTRICITY   = .00012433
INCLINATION    = 108.0142
RA_OF_ASC_NODE = 340.5049
ARG_OF_PERICENTER = 259.1175
MEAN_ANOMALY   = 100.9830

EPHEMERIS_TYPE = 0
CLASSIFICATION_TYPE = U
NORAD_CAT_ID   = 10967
ELEMENT_SET_NO = 999
REV_AT_EPOCH   = 49652
BSTAR          = .2470312E-3
MEAN_MOTION_DOT = .746E-5
MEAN_MOTION_DDOT = 0

CCSDS_OMM_VERS = 2.0
CREATION_DATE  = 
ORIGINATOR     = 

OBJECT_NAME    = SL-14 R/B
OBJECT_ID      = 1979-011B
CENTER_NAME    = EARTH
REF_FRAME      = TEME
TIME_SYSTEM    = UTC
MEAN_ELEMENT_THEORY = SGP/SGP4

EPOCH          = 2025-12-30T11:54:14.241024
MEAN_MOTION    = 14.91795813
ECCENTRICITY   = .00147036
INCLINATION    = 82.5240
RA_OF_ASC_NODE = 162.2036
ARG_OF_PERICENTER = 290.8025
MEAN_ANOMALY   = 69.1619

EPHEMERIS_TYPE = 0
CLASSIFICATION_TYPE = U
NORAD_CAT_ID   = 11267
ELEMENT_SET_NO = 999
REV_AT_EPOCH   = 51846
BSTAR          = .11360402E-3
MEAN_MOTION_DOT = .1172E-4
MEAN_MOTION_DDOT = 0

CCSDS_OMM_VERS = 2.0
CREATION_DATE  = 
ORIGINATOR     = 

OBJECT_NAME    = SL-8 R/B
OBJECT_ID      = 1979-089B
CENTER_NAME    = EARTH
REF_FRAME      = TEME
TIME_SYSTEM    = UTC
MEAN_ELEMENT_THEORY = SGP/SGP4

EPOCH          = 2025-12-30T14:13:58.173024
MEAN_MOTION    = 14.42295328
ECCENTRICITY   = .00148819
INCLINATION    = 74.0670
RA_OF_ASC_NODE = 218.9364
ARG_OF_PERICENTER = 46.0965
MEAN_ANOMALY   = 314.1417

EPHEMERIS_TYPE = 0
CLASSIFICATION_TYPE = U
NORAD_CAT_ID   = 11574
ELEMENT_SET_NO = 999
REV_AT_EPOCH   = 42614
BSTAR          = .12042662E-3
MEAN_MOTION_DOT = .372E-5
MEAN_MOTION_DDOT = 0

CCSDS_OMM_VERS = 2.0
CREATION_DATE  = 
ORIGINATOR     = 

OBJECT_NAME    = SL-14 R/B
OBJECT_ID      = 1980-005B
CENTER_NAME    = EARTH
REF_FRAME      = TEME
TIME_SYSTEM    = UTC
MEAN_ELEMENT_THEORY = SGP/SGP4

EPOCH          = 2025-12-30T12:44:17.099808
MEAN_MOTION    = 14.90815789
ECCENTRICITY   = .00167535
INCLINATION    = 82.5139
RA_OF_ASC_NODE = 12.8242
ARG_OF_PERICENTER = 38.8291
MEAN_ANOMALY   = 321.4128

EPHEMERIS_TYPE = 0
CLASSIFICATION_TYPE = U
NORAD_CAT_ID   = 11672
ELEMENT_SET_NO = 999
REV_AT_EPOCH   = 46618
BSTAR          = .10406278E-3
MEAN_MOTION_DOT = .1051E-4
MEAN_MOTION_DDOT = 0

CCSDS_OMM_VERS = 2.0
CREATION_DATE  = 
ORIGINATOR     = 

OBJECT_NAME    = SL-8 R/B
OBJECT_ID      = 1981-003B
CENTER_NAME    = EARTH
REF_FRAME      = TEME
TIME_SYSTEM    = UTC
MEAN_ELEMENT_THEORY = SGP/SGP4

EPOCH          = 2025-12-30T11:06:15.469920
MEAN_MOTION    = 15.07654314
ECCENTRICITY   = .02765632
INCLINATION    = 82.9359
RA_OF_ASC_NODE = 353.8956
ARG_OF_PERICENTER = 59.4532
MEAN_ANOMALY   = 303.3677

EPHEMERIS_TYPE = 0
CLASSIFICATION_TYPE = U
NORAD_CAT_ID   = 12139
ELEMENT_SET_NO = 999
REV_AT_EPOCH   = 30423
BSTAR          = .71371726E-3
MEAN_MOTION_DOT = .27006E-3
MEAN_MOTION_DDOT = 0

CCSDS_OMM_VERS = 2.0
CREATION_DATE  = 
ORIGINATOR     = 

OBJECT_NAME    = SL-3 R/B
OBJECT_ID      = 1981-046B
CENTER_NAME    = EARTH
REF_FRAME      = TEME
TIME_SYSTEM    = UTC
MEAN_ELEMENT_THEORY = SGP/SGP4

EPOCH          = 2025-12-30T13:33:48.347424
MEAN_MOTION    = 15.40016824
ECCENTRICITY   = .00179848
INCLINATION    = 81.2322
RA_OF_ASC_NODE = 12.6067
ARG_OF_PERICENTER = 258.5474
MEAN_ANOMALY   = 101.3748

EPHEMERIS_TYPE = 0
CLASSIFICATION_TYPE = U
NORAD_CAT_ID   = 12465
ELEMENT_SET_NO = 999
REV_AT_EPOCH   = 42778
BSTAR          = .41565735E-3
MEAN_MOTION_DOT = .16727E-3
MEAN_MOTION_DDOT = 0

CCSDS_OMM_VERS = 2.0
CREATION_DATE  = 
ORIGINATOR     = 

OBJECT_NAME    = SL-3 R/B
OBJECT_ID      = 1981-103B
CENTER_NAME    = EARTH
REF_FRAME      = TEME
TIME_SYSTEM    = UTC
MEAN_ELEMENT_THEORY = SGP/SGP4

EPOCH          = 2025-12-30T13:29:02.351328
MEAN_MOTION    = 15.20465369
ECCENTRICITY   = .00133751
INCLINATION    = 81.1596
RA_OF_ASC_NODE = 294.4789
ARG_OF_PERICENTER = 151.1339
MEAN_ANOMALY   = 209.0635

EPHEMERIS_TYPE = 0
CLASSIFICATION_TYPE = U
NORAD_CAT_ID   = 12904
ELEMENT_SET_NO = 999
REV_AT_EPOCH   = 96272
BSTAR          = .46597056E-3
MEAN_MOTION_DOT = .10224E-3
MEAN_MOTION_DDOT = 0

CCSDS_OMM_VERS = 2.0
CREATION_DATE  = 
ORIGINATOR     = 

OBJECT_NAME    = SL-3 R/B
OBJECT_ID      = 1982-013B
CENTER_NAME    = EARTH
REF_FRAME      = TEME
TIME_SYSTEM    = UTC
MEAN_ELEMENT_THEORY = SGP/SGP4

EPOCH          = 2025-12-30T14:25:48.343872
MEAN_MOTION    = 15.21257339
ECCENTRICITY   = .00238485
INCLINATION    = 81.1745
RA_OF_ASC_NODE = 241.7010
ARG_OF_PERICENTER = 53.8134
MEAN_ANOMALY   = 306.5298

EPHEMERIS_TYPE = 0
CLASSIFICATION_TYPE = U
NORAD_CAT_ID   = 13068
ELEMENT_SET_NO = 999
REV_AT_EPOCH   = 39384
BSTAR          = .30779032E-3
MEAN_MOTION_DOT = .6954E-4
MEAN_MOTION_DDOT = 0

CCSDS_OMM_VERS = 2.0
CREATION_DATE  = 
ORIGINATOR     = 

OBJECT_NAME    = SL-3 R/B
OBJECT_ID      = 1982-039B
CENTER_NAME    = EARTH
REF_FRAME      = TEME
TIME_SYSTEM    = UTC
MEAN_ELEMENT_THEORY = SGP/SGP4

EPOCH          = 2025-12-30T14:27:22.053312
MEAN_MOTION    = 15.09640688
ECCENTRICITY   = .00294987
INCLINATION    = 81.1701
RA_OF_ASC_NODE = 295.5450
ARG_OF_PERICENTER = 191.5762
MEAN_ANOMALY   = 168.4789

EPHEMERIS_TYPE = 0
CLASSIFICATION_TYPE = U
NORAD_CAT_ID   = 13154
ELEMENT_SET_NO = 999
REV_AT_EPOCH   = 37121
BSTAR          = .30190221E-3
MEAN_MOTION_DOT = .4928E-4
MEAN_MOTION_DDOT = 0

