ATLAS CENTAUR R/B       
1 06155U 72065B   25364.29764113  .00002105  00000+0  29117-3 0  9990
2 06155  35.0026 352.3454 0033507 147.4856 212.7917 14.77460914830995
SL-8 R/B                
1 08459U 75112B   25364.56882088  .00000499  00000+0  17270-3 0  9998
2 08459  74.0603 146.0636 0016694 255.6788 104.2513 14.38158650621939
SL-3 R/B                
1 10114U 77057B   25364.58820301  .00018007  00000+0  40418-3 0  9995
2 10114  97.5687 168.6174 0007656 164.0852 196.0638 15.43414128657660
SEASAT 1                
1 10967U 78064A   25364.59899242  .00000746  00000+0  24703-3 0  9991
2 10967 108.0142 340.5049 0001243 259.1175 100.9830 14.46083475496525
SL-14 R/B               
1 11267U 79011B   25364.49599816  .00001172  00000+0  11360-3 0  9990
2 11267  82.5240 162.2036 0014703 290.8025  69.1619 14.91795813518465
SL-8 R/B                
1 11574U 79089B   25364.59303441  .00000372  00000+0  12043-3 0  9994
2 11574  74.0670 218.9364 0014881  46.0965 314.1417 14.42295328426147
SL-14 R/B               
1 11672U 80005B   25364.53075347  .00001051  00000+0  10406-3 0  9994
2 11672  82.5139  12.8242 0016753  38.8291 321.4128 14.90815789466187
SL-8 R/B                
1 12139U 81003B   25364.46267905  .00027006  00000+0  71372-3 0  9994
2 12139  82.9359 353.8956 0276563  59.4532 303.3677 15.07654314304237
SL-3 R/B                
1 12465U 81046B   25364.56514291  .00016727  00000+0  41566-3 0  9997
2 12465  81.2322  12.6067 0017984 258.5474 101.3748 15.40016824427787
SL-3 R/B                
1 12904U 81103B   25364.56183277  .00010224  00000+0  46597-3 0  9990
2 12904  81.1596 294.4789 0013375 151.1339 209.0635 15.20465369962725
SL-3 R/B                
1 13068U 82013B   25364.60125398  .00006954  00000+0  30779-3 0  9998
2 13068  81.1745 241.7010 0023848  53.8134 306.5298 15.21257339393848
SL-3 R/B                
1 13154U 82039B   25364.60233858  .00004928  00000+0  30190-3 0  9999
2 13154  81.1701 295.5450 0029498 191.5762 168.4789 15.09640688371211
